[{"OBJECT_NAME":"STARLINK-34653","OBJECT_ID":"2025-157P","EPOCH":"2026-03-09T23:27:42.734880","MEAN_MOTION":15.3020321,"ECCENTRICITY":0.00010209,"INCLINATION":53.1591,"RA_OF_ASC_NODE":344.6286,"ARG_OF_PERICENTER":98.4703,"MEAN_ANOMALY":261.6413,"EPHEMERIS_TYPE":0,"CLASSIFICATION_TYPE":"U","NORAD_CAT_ID":64917,"ELEMENT_SET_NO":999,"REV_AT_EPOCH":3611,"BSTAR":0.00075614537,"MEAN_MOTION_DOT":0.00022105,"MEAN_MOTION_DDOT":0},{"OBJECT_NAME":"COSMOS 1975","OBJECT_ID":"1988-093A","EPOCH":"2026-03-09T14:15:08.474112","MEAN_MOTION":15.28069249,"ECCENTRICITY":0.0012117,"INCLINATION":82.5181,"RA_OF_ASC_NODE":117.7814,"ARG_OF_PERICENTER":163.8427,"MEAN_ANOMALY":196.3201,"EPHEMERIS_TYPE":0,"CLASSIFICATION_TYPE":"U","NORAD_CAT_ID":19573,"ELEMENT_SET_NO":999,"REV_AT_EPOCH":1939,"BSTAR":0.0002787,"MEAN_MOTION_DOT":7.676e-5,"MEAN_MOTION_DDOT":0}]
